AEHF-4 (USA 288)        
1 43651U 18079A   26169.88156294 -.00000282  00000+0  00000+0 0  9992
2 43651   1.4329   4.1497 0060375 356.0102 156.8027  1.00272042 28314
BEIDOU-3 G1             
1 43683U 18085A   26169.92654553 -.00000116  00000+0  00000+0 0  9996
2 43683   2.8733  97.3191 0008058 349.9693 313.3740  1.00270301 28075
GSAT-29                 
1 43698U 18089A   26169.90583211  .00000078  00000+0  00000+0 0  9992
2 43698   0.1019 264.4318 0003825 151.7821 232.1085  1.00275814 27800
ES'HAIL 2               
1 43700U 18090A   26169.89999937  .00000138  00000+0  00000+0 0  9999
2 43700   0.0144  35.4274 0001720  89.0129 132.4694  1.00271632 27694
GEO-KOMPSAT-2A          
1 43823U 18100A   26169.92030550 -.00000350  00000+0  00000+0 0  9995
2 43823   0.0487 155.6876 0001855 291.5734 279.4528  1.00269167 27647
GSAT-11                 
1 43824U 18100B   26169.90955878 -.00000083  00000+0  00000+0 0  9996
2 43824   0.0304 240.0294 0007751 208.2742 220.2759  1.00271345 27498
GSAT-7A                 
1 43864U 18105A   26169.89248573  .00000020  00000+0  00000+0 0  9990
2 43864   0.0238  89.1738 0001996 335.7992 226.1992  1.00271504 27469
COSMOS 2533             
1 43867U 18107A   26168.69679124 -.00000043  00000+0  00000+0 0  9998
2 43867   0.0491  89.9947 0000945  42.6956  94.0812  1.00270501 27458
TJS-3                   
1 43874U 18110A   26168.80083983 -.00000223  00000+0  00000+0 0  9995
2 43874   2.5471  80.4839 0002166  82.2220 179.8966  1.00270373 27424
ZHONGXING-2D            
1 43920U 19001A   26169.92065216 -.00000343  00000+0  00000+0 0  9993
2 43920   0.0335 235.3570 0001383 100.2003  33.0447  1.00270520 54093
HELLAS-SAT 4 & SGS-1    
1 44034U 19007A   26169.61749581  .00000146  00000+0  00000+0 0  9996
2 44034   0.0763 127.4708 0004778  14.7150  25.9943  1.00270754 27384
GSAT-31                 
1 44035U 19007B   26169.86939370  .00000119  00000+0  00000+0 0  9991
2 44035   0.0606 257.4580 0001643 108.7663 261.7245  1.00275255 26985
NUSANTARA SATU          
1 44048U 19009A   26169.92377219 -.00000241  00000+0  00000+0 0  9999
2 44048   0.0409 132.1093 0004324 344.9562 268.6539  1.00270013 26786
ZHONGXING-6C            
1 44067U 19012A   26169.92073884 -.00000342  00000+0  00000+0 0  9997
2 44067   0.0787  72.3516 0014034 337.4468 319.2206  1.00272914 26755
WGS 10 (USA 291)        
1 44071U 19014A   26169.90687211  .00000041  00000+0  00000+0 0  9992
2 44071   0.0171  18.9820 0000384 260.8384  14.1022  1.00265376 26638
TIANLIAN 2-01           
1 44076U 19017A   26169.91016545 -.00000113  00000+0  00000+0 0  9998
2 44076   0.5454  83.1163 0000791  33.4774 195.2159  1.00271052 26668
ARABSAT-6A              
1 44186U 19021A   26169.88872016  .00000147  00000+0  00000+0 0  9990
2 44186   0.0502  12.2635 0001555 339.2937 265.9647  1.00274733 26175
BEIDOU-3 IGSO-1         
1 44204U 19023A   26169.60920451 -.00000224  00000+0  00000+0 0  9997
2 44204  58.6970  37.6341 0025544 225.7171 340.8879  1.00291017  7221
BEIDOU-2 G8             
1 44231U 19027A   26169.92351219 -.00000254  00000+0  00000+0 0  9999
2 44231   1.6632  74.4969 0010153 281.9068  27.7518  1.00270233 26092
YAMAL 601               
1 44307U 19031A   26169.54817332  .00000114  00000+0  00000+0 0  9993
2 44307   0.0263  73.0889 0002405  16.7504  63.2879  1.00271870 25941
AT&T T-16               
1 44333U 19034A   26169.87471625 -.00000122  00000+0  00000+0 0  9992
2 44333   0.0226  66.9403 0000809 239.0528 175.1501  1.00271203 25657
EUTELSAT 7C             
1 44334U 19034B   26169.53985329  .00000042  00000+0  00000+0 0  9997
2 44334   0.0727 176.5526 0003167 248.7431  42.8364  1.00271203  6845
BEIDOU-3 IGSO-2         
1 44337U 19035A   26169.88675894 -.00000097  00000+0  00000+0 0  9993
2 44337  55.2463 158.8478 0039664 216.5160 330.6306  1.00265889 25689
COSMOS 2539             
1 44457U 19048A   26169.89722603  .00000075  00000+0  00000+0 0  9997
2 44457   0.0385  89.8471 0000734 357.9956 154.2744  1.00273847 25249
EDRS-C                  
1 44475U 19049A   26169.92307884 -.00000270  00000+0  00000+0 0  9990
2 44475   0.0121  43.2391 0000548  20.8725 317.8232  1.00265043 25221
INTELSAT 39 (IS-39)     
1 44476U 19049B   26169.85152115  .00000000  00000+0  00000+0 0  9998
2 44476   0.0202   5.6567 0000964 335.0768 294.8600  1.00278319 25143
AMOS-17                 
1 44479U 19050A   26169.89826603  .00000103  00000+0  00000+0 0  9991
2 44479   0.0253 312.5646 0001866 173.4782 121.4661  1.00273725 25207
AEHF-5 (USA 292)        
1 44481U 19051A   26169.90025211 -.00000264  00000+0  00000+0 0  9992
2 44481   1.4525 336.3714 0066268 359.9504 347.9723  1.00273284 25278
EUTELSAT 5 WEST B       
1 44624U 19067A   26169.89393269 -.00000049  00000+0  00000+0 0  9998
2 44624   0.0627 348.8684 0003017  98.9715 136.1233  1.00269969 24454
MEV-1                   
1 44625U 19067B   26167.92963140 -.00000149  00000+0  00000+0 0  9993
2 44625   0.8740 268.9828 0002794 179.8034 307.2103  1.00269616 61744
TJS-4                   
1 44637U 19070A   26169.91137880 -.00000176  00000+0  00000+0 0  9995
2 44637   0.0200  69.0385 0004365 328.2816 281.4007  1.00273523 24558
TIBA-1                  
1 44800U 19080A   26169.85838264  .00000149  00000+0  00000+0 0  9994
2 44800   0.0550  17.1748 0001905  81.4584 152.9502  1.00271764 24076
