OBJECT_NAME,OBJECT_ID,EPOCH,MEAN_MOTION,ECCENTRICITY,INCLINATION,RA_OF_ASC_NODE,ARG_OF_PERICENTER,MEAN_ANOMALY,EPHEMERIS_TYPE,CLASSIFICATION_TYPE,NORAD_CAT_ID,ELEMENT_SET_NO,REV_AT_EPOCH,BSTAR,MEAN_MOTION_DOT,MEAN_MOTION_DDOT
AEHF-4 (USA 288),2018-079A,2026-06-18T21:09:27.038016,1.00272042,.00603759,1.4329,4.1497,356.0102,156.8027,0,U,43651,999,2831,0,-.282E-5,0
BEIDOU-3 G1,2018-085A,2026-06-18T22:14:13.533792,1.00270301,.00080583,2.8733,97.3191,349.9693,313.3740,0,U,43683,999,2807,0,-.116E-5,0
GSAT-29,2018-089A,2026-06-18T21:44:23.894304,1.00275814,.0003825,0.1019,264.4318,151.7821,232.1085,0,U,43698,999,2780,0,.78E-6,0
ES'HAIL 2,2018-090A,2026-06-18T21:35:59.945568,1.00271632,.00017207,0.0144,35.4274,89.0129,132.4694,0,U,43700,999,2769,0,.138E-5,0
GEO-KOMPSAT-2A,2018-100A,2026-06-18T22:05:14.395200,1.00269167,.00018556,0.0487,155.6876,291.5734,279.4528,0,U,43823,999,2764,0,-.35E-5,0
GSAT-11,2018-100B,2026-06-18T21:49:45.878592,1.00271345,.00077515,0.0304,240.0294,208.2742,220.2759,0,U,43824,999,2749,0,-.83E-6,0
GSAT-7A,2018-105A,2026-06-18T21:25:10.767072,1.00271504,.00019967,0.0238,89.1738,335.7992,226.1992,0,U,43864,999,2746,0,.2E-6,0
COSMOS 2533,2018-107A,2026-06-17T16:43:22.763136,1.00270501,.00009457,0.0491,89.9947,42.6956,94.0812,0,U,43867,999,2745,0,-.43E-6,0
TJS-3,2018-110A,2026-06-17T19:13:12.561312,1.00270373,.0002166,2.5471,80.4839,82.2220,179.8966,0,U,43874,999,2742,0,-.223E-5,0
ZHONGXING-2D,2019-001A,2026-06-18T22:05:44.346624,1.00270520,.00013838,0.0335,235.3570,100.2003,33.0447,0,U,43920,999,5409,0,-.343E-5,0
HELLAS-SAT 4 & SGS-1,2019-007A,2026-06-18T14:49:11.637984,1.00270754,.00047788,0.0763,127.4708,14.7150,25.9943,0,U,44034,999,2738,0,.146E-5,0
GSAT-31,2019-007B,2026-06-18T20:51:55.615680,1.00275255,.0001643,0.0606,257.4580,108.7663,261.7245,0,U,44035,999,2698,0,.119E-5,0
NUSANTARA SATU,2019-009A,2026-06-18T22:10:13.917216,1.00270013,.0004324,0.0409,132.1093,344.9562,268.6539,0,U,44048,999,2678,0,-.241E-5,0
ZHONGXING-6C,2019-012A,2026-06-18T22:05:51.835776,1.00272914,.00140341,0.0787,72.3516,337.4468,319.2206,0,U,44067,999,2675,0,-.342E-5,0
WGS 10 (USA 291),2019-014A,2026-06-18T21:45:53.750304,1.00265376,.00003844,0.0171,18.9820,260.8384,14.1022,0,U,44071,999,2663,0,.41E-6,0
TIANLIAN 2-01,2019-017A,2026-06-18T21:50:38.294880,1.00271052,.00007912,0.5454,83.1163,33.4774,195.2159,0,U,44076,999,2666,0,-.113E-5,0
ARABSAT-6A,2019-021A,2026-06-18T21:19:45.421824,1.00274733,.0001555,0.0502,12.2635,339.2937,265.9647,0,U,44186,999,2617,0,.147E-5,0
BEIDOU-3 IGSO-1,2019-023A,2026-06-18T14:37:15.269664,1.00291017,.0025544,58.6970,37.6341,225.7171,340.8879,0,U,44204,999,722,0,-.224E-5,0
BEIDOU-2 G8,2019-027A,2026-06-18T22:09:51.453216,1.00270233,.00101534,1.6632,74.4969,281.9068,27.7518,0,U,44231,999,2609,0,-.254E-5,0
YAMAL 601,2019-031A,2026-06-18T13:09:22.174848,1.00271870,.00024059,0.0263,73.0889,16.7504,63.2879,0,U,44307,999,2594,0,.114E-5,0
AT&T T-16,2019-034A,2026-06-18T20:59:35.484000,1.00271203,.00008096,0.0226,66.9403,239.0528,175.1501,0,U,44333,999,2565,0,-.122E-5,0
EUTELSAT 7C,2019-034B,2026-06-18T12:57:23.324256,1.00271203,.0003167,0.0727,176.5526,248.7431,42.8364,0,U,44334,999,684,0,.42E-6,0
BEIDOU-3 IGSO-2,2019-035A,2026-06-18T21:16:55.972416,1.00265889,.00396642,55.2463,158.8478,216.5160,330.6306,0,U,44337,999,2568,0,-.97E-6,0
COSMOS 2539,2019-048A,2026-06-18T21:32:00.328992,1.00273847,.00007348,0.0385,89.8471,357.9956,154.2744,0,U,44457,999,2524,0,.75E-6,0
EDRS-C,2019-049A,2026-06-18T22:09:14.011776,1.00265043,.00005482,0.0121,43.2391,20.8725,317.8232,0,U,44475,999,2522,0,-.27E-5,0
INTELSAT 39 (IS-39),2019-049B,2026-06-18T20:26:11.427360,1.00278319,.00009647,0.0202,5.6567,335.0768,294.8600,0,U,44476,999,2514,0,0,0
AMOS-17,2019-050A,2026-06-18T21:33:30.184992,1.00273725,.00018669,0.0253,312.5646,173.4782,121.4661,0,U,44479,999,2520,0,.103E-5,0
AEHF-5 (USA 292),2019-051A,2026-06-18T21:36:21.782304,1.00273284,.0066268,1.4525,336.3714,359.9504,347.9723,0,U,44481,999,2527,0,-.264E-5,0
EUTELSAT 5 WEST B,2019-067A,2026-06-18T21:27:15.784416,1.00269969,.00030178,0.0627,348.8684,98.9715,136.1233,0,U,44624,999,2445,0,-.49E-6,0
MEV-1,2019-067B,2026-06-16T22:18:40.152960,1.00269616,.00027946,0.8740,268.9828,179.8034,307.2103,0,U,44625,999,6174,0,-.149E-5,0
TJS-4,2019-070A,2026-06-18T21:52:23.128320,1.00273523,.0004365,0.0200,69.0385,328.2816,281.4007,0,U,44637,999,2455,0,-.176E-5,0
TIBA-1,2019-080A,2026-06-18T20:36:04.260096,1.00271764,.00019053,0.0550,17.1748,81.4584,152.9502,0,U,44800,999,2407,0,.149E-5,0
